[{"OBJECT_NAME":"DAMPE","OBJECT_ID":"2015-078A","EPOCH":"2026-03-09T23:55:00.527232","MEAN_MOTION":15.30502084,"ECCENTRICITY":0.00138005,"INCLINATION":97.4588,"RA_OF_ASC_NODE":73.9866,"ARG_OF_PERICENTER":70.6942,"MEAN_ANOMALY":289.579,"EPHEMERIS_TYPE":0,"CLASSIFICATION_TYPE":"U","NORAD_CAT_ID":41173,"ELEMENT_SET_NO":999,"REV_AT_EPOCH":56937,"BSTAR":9.1158173e-5,"MEAN_MOTION_DOT":2.617e-5,"MEAN_MOTION_DDOT":0},{"OBJECT_NAME":"STARLINK-33623","OBJECT_ID":"2025-035W","EPOCH":"2026-03-09T22:26:16.939392","MEAN_MOTION":15.27588777,"ECCENTRICITY":0.00011499,"INCLINATION":43.0006,"RA_OF_ASC_NODE":146.0073,"ARG_OF_PERICENTER":278.8032,"MEAN_ANOMALY":81.269,"EPHEMERIS_TYPE":0,"CLASSIFICATION_TYPE":"U","NORAD_CAT_ID":63072,"ELEMENT_SET_NO":999,"REV_AT_EPOCH":5976,"BSTAR":0.0012671021,"MEAN_MOTION_DOT":0.0003478,"MEAN_MOTION_DDOT":0}]
